NORAD_CAT_ID,OBJECT_NAME,OBJECT_TYPE,EPOCH,MEAN_MOTION,ECCENTRICITY,INCLINATION,RA_OF_ASC_NODE,ARG_OF_PERICENTER,MEAN_ANOMALY,BSTAR,MEAN_MOTION_DOT,MEAN_MOTION_DDOT,TLE_LINE0,TLE_LINE1,TLE_LINE2,SEMIMAJOR_AXIS,PERIOD,APOGEE,PERIGEE,DECAYED
54187.0,STARLINK-5240,PAYLOAD,2023-01-25 23:30:11,15.08836218,0.0001449,53.217,75.8198,79.9925,280.1231,9.2726e-05,1.188e-05,0.0,0 STARLINK-5240,1 54187U 22141AG  23025.97930087  .00001188  00000-0  92726-4 0  9998,2 54187  53.2170  75.8198 0001449  79.9925 280.1231 15.08836218 14185,6917.892,95.438,540.759,538.755,0.0
54187.0,STARLINK-5240,PAYLOAD,2023-01-26 10:37:52,15.08851983,0.0001408,53.2171,73.7385,91.6218,268.4935,3.619e-05,2.88e-06,0.0,0 STARLINK-5240,1 54187U 22141AG  23026.44297261  .00000288  00000-0  36190-4 0  9994,2 54187  53.2171  73.7385 0001408  91.6218 268.4935 15.08851983 14256,6917.844,95.437,540.683,538.735,0.0
54187.0,STARLINK-5240,PAYLOAD,2023-01-26 23:20:58,15.08834815,0.000123,53.2166,71.3592,93.4659,266.6473,6.2337e-05,7.04e-06,0.0,0 STARLINK-5240,1 54187U 22141AG  23026.97290053  .00000704  00000-0  62337-4 0  9999,2 54187  53.2166  71.3592 0001230  93.4659 266.6473 15.08834815 14337,6917.896,95.438,540.612,538.91,0.0
54187.0,STARLINK-5240,PAYLOAD,2023-01-27 08:53:17,15.0883978,0.0001197,53.2166,69.5739,102.9901,257.1225,-1.7264e-05,-5.63e-06,0.0,0 STARLINK-5240,1 54187U 22141AG  23027.37034069 -.00000563  00000-0 -17264-4 0  9991,2 54187  53.2166  69.5739 0001197 102.9901 257.1225 15.08839780 14164,6917.880999999999,95.438,540.5740000000001,538.918,0.0
54187.0,STARLINK-5240,PAYLOAD,2023-01-27 20:00:59,15.08837674,0.0001238,53.2163,67.4916,97.0018,263.1115,-4.5886e-05,-1.018e-05,0.0,0 STARLINK-5240,1 54187U 22141AG  23027.83402310 -.00001018  00000-0 -45886-4 0  9997,2 54187  53.2163  67.4916 0001238  97.0018 263.1115 15.08837674 14237,6917.887,95.438,540.609,538.896,0.0
54187.0,STARLINK-5240,PAYLOAD,2023-01-28 02:22:32,15.08836005,0.0001294,53.216,66.3018,95.9122,264.2018,-3.3108e-05,-8.15e-06,0.0,0 STARLINK-5240,1 54187U 22141AG  23028.09898415 -.00000815  00000-0 -33108-4 0  9999,2 54187  53.2160  66.3018 0001294  95.9122 264.2018 15.08836005 14501,6917.893,95.438,540.653,538.862,0.0
54187.0,STARLINK-5240,PAYLOAD,2023-01-28 11:54:50,15.08843809,0.0001184,53.2161,64.5173,103.9883,256.1241,-9.4799e-05,-1.796e-05,0.0,0 STARLINK-5240,1 54187U 22141AG  23028.49642095 -.00001796  00000-0 -94799-4 0  9996,2 54187  53.2161  64.5173 0001184 103.9883 256.1241 15.08843809 14335,6917.869,95.437,540.553,538.915,0.0
54187.0,STARLINK-5240,PAYLOAD,2023-01-28 19:51:46,15.08846107,0.0001171,53.2162,63.0307,111.2911,248.8206,-5.2033e-05,-1.116e-05,0.0,0 STARLINK-5240,1 54187U 22141AG  23028.82761653 -.00001116  00000-0 -52033-4 0  9996,2 54187  53.2162  63.0307 0001171 111.2911 248.8206 15.08846107 14387,6917.862,95.437,540.537,538.917,0.0
54187.0,STARLINK-5240,PAYLOAD,2023-01-29 02:13:18,15.08839347,0.0001205,53.2161,61.8409,103.1538,256.9589,5.911e-05,6.53e-06,0.0,0 STARLINK-5240,1 54187U 22141AG  23029.09257729  .00000653  00000-0  59110-4 0  9996,2 54187  53.2161  61.8409 0001205 103.1538 256.9589 15.08839347 14650,6917.882,95.438,540.581,538.914,0.0
54187.0,STARLINK-5240,PAYLOAD,2023-01-29 08:34:50,15.08844625,0.0001188,53.2162,60.6519,100.7277,259.3849,8.3208e-05,1.037e-05,0.0,0 STARLINK-5240,1 54187U 22141AG  23029.35753267  .00001037  00000-0  83208-4 0  9995,2 54187  53.2162  60.6519 0001188 100.7277 259.3849 15.08844625 14463,6917.866,95.437,540.553,538.909,0.0
54187.0,STARLINK-5240,PAYLOAD,2023-01-30 02:04:06,15.08833758,0.0001279,53.2164,57.3825,89.3901,270.7238,2.7058e-05,1.43e-06,0.0,0 STARLINK-5240,1 54187U 22141AG  23030.08618221  .00000143  00000-0  27058-4 0  9995,2 54187  53.2164  57.3825 0001279  89.3901 270.7238 15.08833758 14807,6917.899,95.438,540.649,538.88,0.0
54187.0,STARLINK-5240,PAYLOAD,2023-01-30 06:50:15,15.08830925,0.0001144,53.2172,56.4892,100.6694,259.4427,3.0896e-05,2.04e-06,0.0,0 STARLINK-5240,1 54187U 22141AG  23030.28490369  .00000204  00000-0  30896-4 0  9990,2 54187  53.2172  56.4892 0001144 100.6694 259.4427 15.08830925 14602,6917.908,95.438,540.565,538.982,0.0
54187.0,STARLINK-5240,PAYLOAD,2023-01-31 11:27:11,15.08845299,0.0001069,53.2177,51.137,102.7168,257.3943,-1.8441e-06,-3.17e-06,0.0,0 STARLINK-5240,1 54187U 22141AG  23031.47721612 -.00000317  00000-0 -18441-5 0  9990,2 54187  53.2177  51.1370 0001069 102.7168 257.3943 15.08845299 15011,6917.864,95.437,540.469,538.99,0.0
54187.0,STARLINK-5240,PAYLOAD,2023-01-31 17:48:44,15.08846331,9.3e-05,53.2172,49.9475,92.5144,267.5954,-8.2196e-05,-1.596e-05,0.0,0 STARLINK-5240,1 54187U 22141AG  23031.74217739 -.00001596  00000-0 -82196-4 0  9997,2 54187  53.2172  49.9475 0000930  92.5144 267.5954 15.08846331 14824,6917.861,95.437,540.369,539.083,0.0
54187.0,STARLINK-5240,PAYLOAD,2023-02-01 01:45:40,15.08833615,0.0001001,53.2169,48.461,89.3513,270.7594,9.0111e-06,-1.44e-06,0.0,0 STARLINK-5240,1 54187U 22141AG  23032.07338374 -.00000144  00000-0  90111-5 0  9997,2 54187  53.2169  48.4610 0001001  89.3513 270.7594 15.08833615 15108,6917.9,95.438,540.457,539.072,0.0
54187.0,STARLINK-5240,PAYLOAD,2023-02-01 06:31:49,15.08835963,0.0001048,53.2173,47.5689,93.2711,266.8401,1.7962e-05,-2e-08,0.0,0 STARLINK-5240,1 54187U 22141AG  23032.27210265 -.00000002  00000-0  17962-4 0  9992,2 54187  53.2173  47.5689 0001048  93.2711 266.8401 15.08835963 14902,6917.893,95.438,540.483,539.033,0.0
54187.0,STARLINK-5240,PAYLOAD,2023-02-02 09:33:23,15.08838404,0.0001296,53.2189,42.513,87.7316,272.3824,-3.4397e-05,-8.35e-06,0.0,0 STARLINK-5240,1 54187U 22141AG  23033.39818760 -.00000835  00000-0 -34397-4 0  9996,2 54187  53.2189  42.5130 0001296  87.7316 272.3824 15.08838404 15072,6917.885,95.438,540.647,538.854,0.0
54187.0,STARLINK-5240,PAYLOAD,2023-02-03 07:48:46,15.08840706,0.0001311,53.219,38.3522,91.9793,268.135,0.00017353,2.475e-05,0.0,0 STARLINK-5240,1 54187U 22141AG  23034.32553849  .00002475  00000-0  17353-3 0  9996,2 54187  53.2190  38.3522 0001311  91.9793 268.1350 15.08840706 15442,6917.878,95.438,540.65,538.836,0.0
54187.0,STARLINK-5240,PAYLOAD,2023-02-04 09:14:57,15.08842013,0.0001233,53.2179,33.5913,91.1111,269.0022,1.7341e-05,-1.2e-07,0.0,0 STARLINK-5240,1 54187U 22141AG  23035.38538385 -.00000012  00000-0  17341-4 0  9995,2 54187  53.2179  33.5913 0001233  91.1111 269.0022 15.08842013 15606,6917.874,95.437,540.592,538.886,0.0
54187.0,STARLINK-5240,PAYLOAD,2023-02-05 09:05:43,15.08845862,0.0001233,53.2175,29.1302,92.4069,267.7064,-2.3336e-05,-6.59e-06,0.0,0 STARLINK-5240,1 54187U 22141AG  23036.37898100 -.00000659  00000-0 -23336-4 0  9998,2 54187  53.2175  29.1302 0001233  92.4069 267.7064 15.08845862 15528,6917.862,95.437,540.58,538.874,0.0
54187.0,STARLINK-5240,PAYLOAD,2023-02-06 02:34:58,15.08825873,0.0001384,53.2181,25.8577,101.5455,258.5693,0.000178,2.545e-05,0.0,0 STARLINK-5240,1 54187U 22141AG  23037.10762431  .00002545  00000-0  17800-3 0  9999,2 54187  53.2181  25.8577 0001384 101.5455 258.5693 15.08825873 15863,6917.924,95.438,540.746,538.831,0.0
54187.0,STARLINK-5240,PAYLOAD,2023-02-06 08:56:30,15.08845059,0.0001337,53.2182,24.6683,98.3471,261.7672,1.7463e-05,-1e-07,0.0,0 STARLINK-5240,1 54187U 22141AG  23037.37258015 -.00000010  00000-0  17463-4 0  9998,2 54187  53.2182  24.6683 0001337  98.3471 261.7672 15.08845059 15904,6917.865,95.437,540.655,538.805,0.0
54187.0,STARLINK-5240,PAYLOAD,2023-02-07 08:47:17,15.08849913,0.0001313,53.2181,20.2099,87.2466,272.8676,6.743e-05,7.86e-06,0.0,0 STARLINK-5240,1 54187U 22141AG  23038.36617518  .00000786  00000-0  67430-4 0  9993,2 54187  53.2181  20.2099 0001313  87.2466 272.8676 15.08849913 15822,6917.85,95.437,540.623,538.807,0.0
54187.0,STARLINK-5240,PAYLOAD,2023-02-08 08:38:04,15.08851154,0.0001077,53.2182,15.7502,96.911,263.2004,8.5664e-05,1.076e-05,0.0,0 STARLINK-5240,1 54187U 22141AG  23039.35977407  .00001076  00000-0  85664-4 0  9991,2 54187  53.2182  15.7502 0001077  96.9110 263.2004 15.08851154 16203,6917.846,95.437,540.456,538.966,0.0
54187.0,STARLINK-5240,PAYLOAD,2023-02-09 03:42:44,15.08831839,0.0001174,53.2181,12.1794,88.2449,271.8678,-0.00010857,-2.015e-05,0.0,0 STARLINK-5240,1 54187U 22141AG  23040.15467642 -.00002015  00000-0 -10857-3 0  9993,2 54187  53.2181  12.1794 0001174  88.2449 271.8678 15.08831839 16326,6917.905,95.438,540.582,538.958,0.0
54187.0,STARLINK-5240,PAYLOAD,2023-02-09 06:53:30,15.08834827,0.0001079,53.2187,11.5883,80.1407,279.9707,-3.4205e-05,-8.32e-06,0.0,0 STARLINK-5240,1 54187U 22141AG  23040.28715336 -.00000832  00000-0 -34205-4 0  9992,2 54187  53.2187  11.5883 0001079  80.1407 279.9707 15.08834827 16112,6917.896,95.438,540.508,539.015,0.0
54187.0,STARLINK-5240,PAYLOAD,2023-02-10 05:08:52,15.08857495,9.37e-05,53.2177,7.4233,79.3989,280.7109,0.00011597,1.559e-05,0.0,0 STARLINK-5240,1 54187U 22141AG  23041.21449724  .00001559  00000-0  11597-3 0  9994,2 54187  53.2177   7.4233 0000937  79.3989 280.7109 15.08857495 16483,6917.827,95.436,540.34,539.044,0.0
54187.0,STARLINK-5240,PAYLOAD,2023-02-11 03:24:16,15.08847522,9.4e-05,53.2181,3.2612,75.4186,284.691,8.5184e-05,1.068e-05,0.0,0 STARLINK-5240,1 54187U 22141AG  23042.14186286  .00001068  00000-0  85184-4 0  9997,2 54187  53.2181   3.2612 0000940  75.4186 284.6910 15.08847522 16622,6917.857,95.437,540.373,539.072,0.0
54187.0,STARLINK-5240,PAYLOAD,2023-02-11 04:59:38,15.08863549,0.0001092,53.2183,2.9642,81.4591,278.6525,0.00022645,3.32e-05,0.0,0 STARLINK-5240,1 54187U 22141AG  23042.20808853  .00003320  00000-0  22645-3 0  9990,2 54187  53.2183   2.9642 0001092  81.4591 278.6525 15.08863549 16407,6917.808,95.436,540.429,538.918,0.0
54187.0,STARLINK-5240,PAYLOAD,2023-02-11 20:53:32,15.08845077,0.0001534,53.2183,359.9912,63.3805,296.7344,-8.2685e-05,-1.604e-05,0.0,0 STARLINK-5240,1 54187U 22141AG  23042.87051138 -.00001604  00000-0 -82685-4 0  9995,2 54187  53.2183 359.9912 0001534  63.3805 296.7344 15.08845077 16507,6917.865,95.437,540.791,538.669,0.0
